CREATION_DATE,OBJECT_NAME,OBJECT_ID,EPOCH,MEAN_MOTION,ECCENTRICITY,INCLINATION,RA_OF_ASC_NODE,ARG_OF_PERICENTER,MEAN_ANOMALY,EPHEMERIS_TYPE,CLASSIFICATION_TYPE,NORAD_CAT_ID,ELEMENT_SET_NO,REV_AT_EPOCH,BSTAR,MEAN_MOTION_DOT,MEAN_MOTION_DDOT,SEMIMAJOR_AXIS,PERIOD,APOAPSIS,PERIAPSIS,OBJECT_TYPE,RCS_SIZE,COUNTRY_CODE,LAUNCH_DATE
2021-06-08T22:56:10,XJS H,2020-032B,2021-06-08T17:32:49.048800,15.29938986,0.0009353,35.0374,309.3443,250.6673,239.9306,0,U,45612,999,5738,0.000074683,0.00002183,0,6854.132,94.121,482.407,469.586,PAYLOAD,LARGE,PRC,5/29/2020
2021-06-08T22:26:11,HEAD-4,2020-034A,2021-06-08T19:01:40.255392,15.25370656,0.001465,97.3348,302.3443,46.6823,63.0199,0,U,45624,999,5689,0.000053401,0.00001279,0,6867.81,94.403,499.736,479.613,PAYLOAD,MEDIUM,PRC,5/31/2020
2021-06-08T22:46:11,GAOFEN 9 02,2020-034B,2021-06-08T17:39:15.808896,15.23628442,0.0013625,97.3367,301.7443,33.235,78.566,0,U,45625,999,5683,0.000032655,0.00000714,0,6873.044,94.511,504.274,485.545,PAYLOAD,LARGE,PRC,5/31/2020
2021-06-08T18:36:59,STARLINK-1441,2020-035B,2021-06-08T09:01:08.643072,15.06391976,0.0001391,53.0567,296.7504,115.3852,244.7281,0,U,45658,999,5718,9.90E-06,-0.00000134,0,6925.373,95.593,548.201,546.275,PAYLOAD,LARGE,US,6/4/2020
2021-06-08T18:36:59,STARLINK-1442,2020-035C,2021-06-08T12:22:50.204640,15.06394949,0.0001536,53.0548,296.1201,116.757,243.3577,0,U,45659,999,5719,0.000088375,0.00001035,0,6925.364,95.592,548.293,546.165,PAYLOAD,LARGE,US,6/4/2020
2021-06-08T14:46:10,STARLINK-1443,2020-035D,2021-06-08T12:28:08.531616,15.06393065,0.0001385,53.0565,296.0973,123.2878,236.8243,0,U,45660,999,5679,-0.000065753,-0.0000126,0,6925.37,95.593,548.194,546.276,PAYLOAD,LARGE,US,6/4/2020
2021-06-08T18:36:59,STARLINK-1444,2020-035E,2021-06-08T11:19:08.313600,15.06396118,0.0001113,53.0576,296.3134,120.2846,239.8253,0,U,45661,999,5719,-0.000036559,-0.00000826,0,6925.36,95.592,547.996,546.455,PAYLOAD,LARGE,US,6/4/2020
2021-06-08T18:36:59,STARLINK-1445,2020-035F,2021-06-08T08:29:17.659968,15.06394557,0.0001728,53.0576,296.8379,120.9052,239.2107,0,U,45662,999,5717,0.000062493,0.00000649,0,6925.365,95.592,548.427,546.034,PAYLOAD,LARGE,US,6/4/2020
2021-06-08T18:36:59,STARLINK-1446,2020-035G,2021-06-08T10:10:08.491296,15.06401421,0.0001085,53.0594,296.5288,108.0685,252.0423,0,U,45663,999,5718,7.34E-06,-0.00000172,0,6925.344,95.592,547.961,546.458,PAYLOAD,LARGE,US,6/4/2020
2021-06-08T14:46:10,STARLINK-1448,2020-035J,2021-06-08T12:33:26.110368,15.06407329,0.0001307,53.0583,296.0819,117.0302,243.082,0,U,45665,999,5679,0.000087334,0.0000102,0,6925.326,95.592,548.096,546.286,PAYLOAD,LARGE,US,6/4/2020
2021-06-08T22:46:11,STARLINK-1449,2020-035K,2021-06-08T17:29:19.305024,15.06399118,0.0001498,53.0553,295.1646,120.9614,239.1522,0,U,45666,999,5682,-0.000014071,-0.00000491,0,6925.351,95.592,548.254,546.179,PAYLOAD,LARGE,US,6/4/2020
2021-06-08T18:36:59,STARLINK-1450,2020-035L,2021-06-08T09:27:40.672800,15.0639316,0.0001347,53.0563,296.671,127.9025,232.2086,0,U,45667,999,5717,5.28E-07,-0.00000274,0,6925.37,95.593,548.167,546.302,PAYLOAD,LARGE,US,6/4/2020
2021-06-08T22:46:11,STARLINK-1451,2020-035M,2021-06-08T18:23:45.964608,15.06402027,0.0001333,53.0557,294.9981,106.3572,253.7564,0,U,45668,999,5683,-0.000050903,-0.0000104,0,6925.342,95.592,548.13,546.284,PAYLOAD,LARGE,US,6/4/2020
2021-06-08T22:46:11,STARLINK-1452,2020-035N,2021-06-08T17:51:54.893376,15.06394413,0.0001919,53.057,295.0902,126.8909,233.2256,0,U,45669,999,5681,-0.000028488,-0.00000706,0,6925.366,95.592,548.56,545.902,PAYLOAD,LARGE,US,6/4/2020
2021-06-08T18:36:59,STARLINK-1453,2020-035P,2021-06-08T11:17:49.169472,15.06396167,0.0001096,53.0582,266.32,125.8718,234.2373,0,U,45670,999,5750,-0.000055787,-0.00001112,0,6925.36,95.592,547.984,546.466,PAYLOAD,LARGE,US,6/4/2020
2021-06-08T18:36:59,STARLINK-1454,2020-035Q,2021-06-08T08:23:59.320032,15.06394014,0.0001241,53.0564,296.8602,118.5203,241.5911,0,U,45671,999,5716,-0.000051985,-0.00001055,0,6925.367,95.593,548.091,546.372,PAYLOAD,LARGE,US,6/4/2020
2021-06-08T18:36:59,STARLINK-1455,2020-035R,2021-06-08T10:14:06.707328,15.06395787,0.0001028,53.0562,266.5164,121.7127,238.3963,0,U,45672,999,5760,-0.000029624,-0.00000722,0,6925.361,95.592,547.938,546.515,PAYLOAD,LARGE,US,6/4/2020
2021-06-08T18:36:59,STARLINK-1456,2020-035S,2021-06-08T08:45:13.047840,15.06398031,0.0001306,53.0576,296.7923,133.3606,226.7492,0,U,45673,999,5718,-0.00002202,-0.00000609,0,6925.355,95.592,548.124,546.315,PAYLOAD,LARGE,US,6/4/2020
2021-06-08T18:36:59,STARLINK-1457,2020-035T,2021-06-08T08:55:49.560096,15.0639817,0.0001431,53.0568,296.7618,121.8916,238.2213,0,U,45674,999,5715,0.000061538,0.00000635,0,6925.354,95.592,548.21,546.228,PAYLOAD,LARGE,US,6/4/2020
2021-06-08T22:46:11,STARLINK-1458,2020-035U,2021-06-08T18:13:08.012928,15.06400039,0.000119,53.0567,295.0308,121.8584,238.2521,0,U,45675,999,5682,0.000081376,0.00000931,0,6925.348,95.592,548.038,546.389,PAYLOAD,LARGE,US,6/4/2020
2021-06-08T22:46:11,STARLINK-1460,2020-035V,2021-06-08T15:55:08.836608,15.06391578,0.0001075,53.0559,295.46,111.8564,248.2539,0,U,45676,999,5681,0.000080284,0.00000914,0,6925.374,95.593,547.984,546.495,PAYLOAD,LARGE,US,6/4/2020
2021-06-08T14:36:11,STARLINK-1392,2020-035W,2021-06-08T11:24:26.843616,15.06392327,0.0001407,53.0556,296.3014,128.1294,231.9822,0,U,45677,999,5678,0.000061653,0.00000637,0,6925.372,95.593,548.211,546.263,PAYLOAD,LARGE,US,6/4/2020
2021-06-08T18:36:59,STARLINK-1393,2020-035X,2021-06-08T04:53:00.560544,15.06399285,0.0001469,53.0579,287.5187,125.308,234.8047,0,U,45678,999,5727,-0.00015939,-0.00002655,0,6925.351,95.592,548.233,546.198,PAYLOAD,LARGE,US,6/4/2020
2021-06-08T14:46:10,STARLINK-1394,2020-035Y,2021-06-08T11:20:27.581280,15.06398426,0.0000955,53.0572,286.3029,131.3108,228.7963,0,U,45679,999,5693,0.000070782,0.00000773,0,6925.353,95.592,547.88,546.557,PAYLOAD,LARGE,US,6/4/2020
