XJS H                   
1 45612U 20032B   21159.73112325  .00002183  00000-0  74683-4 0  9993
2 45612  35.0374 309.3443 0009353 250.6673 239.9306 15.29938986 57382
HEAD-4                  
1 45624U 20034A   21159.79282703  .00001279  00000-0  53401-4 0  9992
2 45624  97.3348 302.3443 0014650  46.6823  63.0199 15.25370656 56897
GAOFEN 9-02             
1 45625U 20034B   21159.73559964  .00000714  00000-0  32655-4 0  9994
2 45625  97.3367 301.7443 0013625  33.2350  78.5660 15.23628442 56835
STARLINK-1441           
1 45658U 20035B   21159.37579448 -.00000134  00000-0  98985-5 0  9996
2 45658  53.0567 296.7504 0001391 115.3852 244.7281 15.06391976 57184
STARLINK-1442           
1 45659U 20035C   21159.51585885  .00001035  00000-0  88375-4 0  9996
2 45659  53.0548 296.1201 0001536 116.7570 243.3577 15.06394949 57192
STARLINK-1443           
1 45660U 20035D   21159.51954319 -.00001260  00000-0 -65753-4 0  9997
2 45660  53.0565 296.0973 0001385 123.2878 236.8243 15.06393065 56794
STARLINK-1444           
1 45661U 20035E   21159.47162400 -.00000826  00000-0 -36559-4 0  9994
2 45661  53.0576 296.3134 0001113 120.2846 239.8253 15.06396118 57191
STARLINK-1445           
1 45662U 20035F   21159.35367662  .00000649  00000-0  62493-4 0  9996
2 45662  53.0576 296.8379 0001728 120.9052 239.2107 15.06394557 57171
STARLINK-1446           
1 45663U 20035G   21159.42370939 -.00000172  00000-0  73379-5 0  9994
2 45663  53.0594 296.5288 0001085 108.0685 252.0423 15.06401421 57187
STARLINK-1448           
1 45665U 20035J   21159.52321887  .00001020  00000-0  87334-4 0  9992
2 45665  53.0583 296.0819 0001307 117.0302 243.0820 15.06407329 56795
STARLINK-1449           
1 45666U 20035K   21159.72869566 -.00000491  00000-0 -14071-4 0  9997
2 45666  53.0553 295.1646 0001498 120.9614 239.1522 15.06399118 56826
STARLINK-1450           
1 45667U 20035L   21159.39422075 -.00000274  00000-0  52782-6 0  9992
2 45667  53.0563 296.6710 0001347 127.9025 232.2086 15.06393160 57171
STARLINK-1451           
1 45668U 20035M   21159.76650422 -.00001040  00000-0 -50903-4 0  9997
2 45668  53.0557 294.9981 0001333 106.3572 253.7564 15.06402027 56833
STARLINK-1452           
1 45669U 20035N   21159.74438534 -.00000706  00000-0 -28488-4 0  9995
2 45669  53.0570 295.0902 0001919 126.8909 233.2256 15.06394413 56813
STARLINK-1453           
1 45670U 20035P   21159.47070798 -.00001112  00000-0 -55787-4 0  9995
2 45670  53.0582 266.3200 0001096 125.8718 234.2373 15.06396167 57509
STARLINK-1454           
1 45671U 20035Q   21159.34999213 -.00001055  00000-0 -51985-4 0  9996
2 45671  53.0564 296.8602 0001241 118.5203 241.5911 15.06394014 57164
STARLINK-1455           
1 45672U 20035R   21159.42646652 -.00000722  00000-0 -29624-4 0  9997
2 45672  53.0562 266.5164 0001028 121.7127 238.3963 15.06395787 57602
STARLINK-1456           
1 45673U 20035S   21159.36473435 -.00000609  00000-0 -22020-4 0  9995
2 45673  53.0576 296.7923 0001306 133.3606 226.7492 15.06398031 57182
STARLINK-1457           
1 45674U 20035T   21159.37210139  .00000635  00000-0  61538-4 0  9991
2 45674  53.0568 296.7618 0001431 121.8916 238.2213 15.06398170 57150
STARLINK-1458           
1 45675U 20035U   21159.75912052  .00000931  00000-0  81376-4 0  9998
2 45675  53.0567 295.0308 0001190 121.8584 238.2521 15.06400039 56824
STARLINK-1460           
1 45676U 20035V   21159.66329672  .00000914  00000-0  80284-4 0  9997
2 45676  53.0559 295.4600 0001075 111.8564 248.2539 15.06391578 56810
STARLINK-1392           
1 45677U 20035W   21159.47531069  .00000637  00000-0  61653-4 0  9993
2 45677  53.0556 296.3014 0001407 128.1294 231.9822 15.06392327 56780
STARLINK-1393           
1 45678U 20035X   21159.20347871 -.00002655  00000-0 -15939-3 0  9990
2 45678  53.0579 287.5187 0001469 125.3080 234.8047 15.06399285 57275
STARLINK-1394           
1 45679U 20035Y   21159.47254145  .00000773  00000-0  70782-4 0  9996
2 45679  53.0572 286.3029 0000955 131.3108 228.7963 15.06398426 56935
